19-Mar-2025 23:34:25
1 44737U 19074AA  25078.72044252  .00947381  50116-3  11774-2 0  9994
2 44737  53.0360 303.7693 0001953 255.5825 218.5753 16.07248510295927
